BEIDOU-3 M6             
1 43582U 18062B   23244.29503425  .00000024  00000+0  00000+0 0  9998
2 43582  54.1785 217.0054 0004924 353.9027   6.0514  1.86229548 34649
BEIDOU-3 M12            
1 43602U 18067A   23244.23136023  .00000024  00000+0  00000+0 0  9996
2 43602  54.2660 215.6627 0006935  11.5693 348.4058  1.86231464 34124
BEIDOU-3 M11            
1 43603U 18067B   23242.21740038  .00000027  00000+0  00000+0 0  9993
2 43603  54.2634 215.6970 0004058 354.8722   5.0892  1.86231408 34116
BEIDOU-3 M13            
1 43622U 18072A   23242.17628281  .00000023  00000+0  00000+0 0  9996
2 43622  55.7662  96.6379 0004689 300.1659  59.8857  1.86231552 33620
BEIDOU-3 M14            
1 43623U 18072B   23244.18953435  .00000010  00000+0  00000+0 0  9998
2 43623  55.7695  96.5631 0003252 346.1747  13.9102  1.86231664 33651
BEIDOU-3 M16            
1 43647U 18078A   23243.27790911 -.00000086  00000+0  00000+0 0  9991
2 43647  54.9115 335.4807 0005957  10.7449 349.3107  1.86227132 33142
BEIDOU-3 M15            
1 43648U 18078B   23243.94558378 -.00000089  00000+0  00000+0 0  9998
2 43648  54.9065 335.4616 0002919  26.3021 333.7566  1.86232163 33178
BEIDOU-3 G1             
1 43683U 18085A   23244.57480480 -.00000295  00000+0  00000+0 0  9992
2 43683   1.5078 124.5740 0002885 354.1478 208.7043  1.00267908 17831
COSMOS 2529             
1 43687U 18086A   23244.48120370  .00000040  00000+0  00000+0 0  9993
2 43687  64.3165 227.1182 0011561 262.0901  97.7641  2.13102010 37556
BEIDOU-3 M17            
1 43706U 18093A   23244.09361202  .00000024  00000+0  00000+0 0  9993
2 43706  54.2613 216.9398 0010417 279.5056  80.3369  1.86231823 32545
BEIDOU-3 M18            
1 43707U 18093B   23243.95953276  .00000024  00000+0  00000+0 0  9996
2 43707  54.2621 216.9359 0008567 303.9498  55.9292  1.86229635 32537
NAVSTAR 77 (USA 289)    
1 43873U 18109A   23244.14949390  .00000016  00000+0  00000+0 0  9993
2 43873  55.1918 132.4915 0025611 191.3512 333.7643  2.00568537 34617
BEIDOU-3 IGSO-1         
1 44204U 19023A   23244.35580802 -.00000204  00000+0  00000+0 0  9990
2 44204  57.2155  48.2729 0023495 193.7247 346.0028  1.00282985 16116
BEIDOU-2 G8             
1 44231U 19027A   23244.54472193 -.00000262  00000+0  00000+0 0  9992
2 44231   1.9482  81.1522 0006272 127.0845 112.8544  1.00271952 15854
COSMOS 2534             
1 44299U 19030A   23244.27854542  .00000040  00000+0  00000+0 0  9995
2 44299  64.3891 227.0511 0013641 280.8948  57.7727  2.13101843 33186
BEIDOU-3 IGSO-2         
1 44337U 19035A   23244.55896375 -.00000162  00000+0  00000+0 0  9990
2 44337  55.1536 167.8170 0033183 197.2630 296.3502  1.00275176 15444
NAVSTAR 78 (USA 293)    
1 44506U 19056A   23244.47423503 -.00000094  00000+0  00000+0 0  9995
2 44506  55.8210  11.5538 0036805 184.8287 114.4511  2.00565246 29610
BEIDOU-3 M24            
1 44542U 19061A   23243.49432816  .00000024  00000+0  00000+0 0  9991
2 44542  54.4888 217.1894 0008367 337.8647  22.0607  1.86231380 26784
BEIDOU-3 M23            
1 44543U 19061B   23244.42111767  .00000026  00000+0  00000+0 0  9997
2 44543  54.4870 217.1270 0005883 321.1124 212.0715  1.86231627 26808
BEIDOU-3 IGSO-3         
1 44709U 19073A   23244.53232981 -.00000162  00000+0  00000+0 0  9990
2 44709  56.5383 291.7818 0035234 189.6111 170.4302  1.00283070 14234
BEIDOU-3 M22            
1 44793U 19078A   23243.33969844 -.00000087  00000+0  00000+0 0  9996
2 44793  54.7597 335.4463 0004865  20.2264 339.8358  1.86232105 25636
BEIDOU-3 M21            
1 44794U 19078B   23241.32247510 -.00000080  00000+0  00000+0 0  9996
2 44794  54.7349 335.4982 0002813  13.9286 346.1178  1.86232532 25604
COSMOS 2544             
1 44850U 19088A   23243.85643740  .00000037  00000+0  00000+0 0  9996
2 44850  65.0760 107.9096 0011462 252.8804 107.0912  2.13102117 28976
BEIDOU-3 M19            
1 44864U 19090A   23244.53165359  .00000007  00000+0  00000+0 0  9992
2 44864  55.7023  96.7457 0015548 276.0186 269.4419  1.86231660 25242
BEIDOU-3 M20            
1 44865U 19090B   23244.32502568  .00000009  00000+0  00000+0 0  9999
2 44865  55.7039  96.7854 0013473 291.1658 205.5461  1.86231604 25222
BEIDOU-3 G2             
1 45344U 20017A   23244.57241487 -.00000155  00000+0  00000+0 0  9993
2 45344   2.0460  16.0417 0003430 152.1057  98.3986  1.00269642 13034
COSMOS 2545             
1 45358U 20018A   23244.05318060 -.00000075  00000+0  00000+0 0  9995
2 45358  64.8448 348.0372 0009762 236.7061 123.2280  2.13102469 26922
BEIDOU-3 G3             
1 45807U 20040A   23244.58842177 -.00000370  00000+0  00000+0 0  9996
2 45807   0.6180 343.0951 0005570 335.5294 344.1724  1.00276774 11847
NAVSTAR 79 (USA 304)    
1 45854U 20041A   23244.32717615 -.00000021  00000+0  00000+0 0  9992
2 45854  55.8799  68.8418 0035966 186.0235 310.4715  2.00563475 23581
GALAXY 30 (G-30)        
1 46114U 20056C   23244.48456197  .00000021  00000+0  00000+0 0  9999
2 46114   0.0214 145.7989 0002380  24.8261 219.1905  1.00269533 11068
COSMOS 2547             
1 46805U 20075A   23244.24218677  .00000040  00000+0  00000+0 0  9991
2 46805  64.6165 226.6075 0008626 244.0396 115.8571  2.13102874 22179
NAVSTAR 80 (USA 309)    
1 46826U 20078A   23244.42051196  .00000021  00000+0  00000+0 0  9997
2 46826  54.3137 252.1824 0035856 194.6832 344.6742  2.00562619 21054
NAVSTAR 81 (USA 319)    
1 48859U 21054A   23244.42191140 -.00000094  00000+0  00000+0 0  9995
2 48859  55.3383  13.3432 0012050 210.5259 152.0635  2.00573524 16301
QZS-1R                  
1 49336U 21096A   23223.74525463 -.00000331  00000+0  00000+0 0  9997
2 49336  35.3005  95.2790 0740332 268.7858 355.3268  1.00301615  6575
GSAT0223 (GALILEO 27)   
1 49809U 21116A   23243.33452170 -.00000093  00000+0  00000+0 0  9991
2 49809  57.2788   9.2074 0003294 172.8886 187.3746  1.70475698 10788
GSAT0224 (GALILEO 28)   
1 49810U 21116B   23244.32479767 -.00000096  00000+0  00000+0 0  9997
2 49810  57.2796   9.1788 0002828 163.7191 196.7802  1.70475746 10826
COSMOS 2557             
1 52984U 22075A   23243.93545542 -.00000076  00000+0  00000+0 0  9997
2 52984  64.7613 350.2007 0011694 275.8142  84.0766  2.13102197  8975
COSMOS 2559             
1 54031U 22130A   23241.53109804 -.00000072  00000+0  00000+0 0  9991
2 54031  64.7333 350.4122 0006939 215.5499 144.4229  2.13101421  6894
COSMOS 2564             
1 54377U 22161A   23244.07058262  .00000041  00000+0  00000+0 0  9996
2 54377  64.7572 226.6657 0011016 226.6287 133.2658  2.13102102  5897
NAVSTAR 82 (USA 343)    
1 55268U 23009A   23244.11580917  .00000014  00000+0  00000+0 0  9990
2 55268  55.0909 188.5402 0004343  91.8025  91.3560  2.00555748  4782
BEIDOU-3 G4             
1 56564U 23066A   23244.58452068 -.00000130  00000+0  00000+0 0  9999
2 56564   2.8519 288.8099 0007141 210.4471 211.6078  1.00272544  1178
IRNSS-1J (NVS-01)       
1 56759U 23076A   23244.59597200 -.00000356  00000+0  00000+0 0  9995
2 56759   4.7471 272.1137 0005609 333.1682  79.2081  1.00274891   892
